stk.v.4.3 

BEGIN Ephemeris 
 
NumberOfEphemerisPoints		146 
ScenarioEpoch	    1 Sep 2020 20:13:11.370132566 
InterpolationMethod		Lagrange 
InterpolationOrder		5 
CentralBody				Earth 
CoordinateSystem			TEME 
CoordinateSystemEpoch	  1 Sep 2020 20:13:11.370132566 
DistanceUnit			Kilometers 
 
EphemerisTimePosVel 
 
       0.00000000   -7073.45185770   -1101.22508977       0.02819581  0.081485256 -0.460881983  7.448996273
 END Ephemeris 
